TANSTAAFL-2             
1 62378U 24247B   26067.20753490  .00013897  00000+0  50872-3 0  9998
2 62378  44.9880 125.0934 0003072 298.8909  61.1666 15.28016845 67506
STARLINK-32841          
1 62865U 25022M   26068.45233147  .00034344  00000+0  11668-2 0  9990
2 62865  53.1577 130.7280 0001346  81.5163 278.5991 15.30186569 61851
